[Satellite]
VERSION=1.1
NAME=INMARSAT 4-F2
NICKNAME=INMARSAT 4-F2
TLE1=1 28899U 05044A   15051.10939381  .00000120  00000-0  00000+0 0  9997
TLE2=2 28899   2.4225   0.0717 0002511 345.2058 228.8815  1.00272975 34042
